IRIDIUM 152             
1 43479U 18047D   26095.12396017  .00000011  00000+0 -31840-5 0  9991
2 43479  86.3933 118.8914 0002017  91.2826 268.8601 14.34217654412017
IRIDIUM 147             
1 43480U 18047E   26095.13030373  .00000052  00000+0  11637-4 0  9999
2 43480  86.3931 118.8929 0002384  92.6899 267.4569 14.34217995412011
IRIDIUM 110             
1 43481U 18047F   26095.13664535  .00000024  00000+0  14550-5 0  9990
2 43481  86.3933 118.9800 0001984  85.5817 274.5606 14.34217802412006
IRIDIUM 162             
1 43482U 18047G   26095.08797438  .00000190  00000+0  50578-4 0  9997
2 43482  86.4453 118.9380 0002242  94.9525 265.1932 14.43277090414584
IRIDIUM 160             
1 43569U 18061A   26095.22201847  .00000032  00000+0  45231-5 0  9995
2 43569  86.3914  87.3092 0002215  86.4332 273.7117 14.34217818402918
IRIDIUM 166             
1 43570U 18061B   26095.24738979  .00000006  00000+0 -50048-5 0  9994
2 43570  86.3912  87.2499 0002359  89.8389 270.3078 14.34217614402942
IRIDIUM 158             
1 43571U 18061C   26095.07613894 -.00000017  00000+0 -13261-4 0  9992
2 43571  86.3911  87.3317 0002012  92.0942 268.0485 14.34217317402888
IRIDIUM 165             
1 43572U 18061D   26095.24104601 -.00000024  00000+0 -15625-4 0  9997
2 43572  86.3915  87.3078 0002249  89.9930 270.1524 14.34217298402933
IRIDIUM 155             
1 43573U 18061E   26094.99368486  .00000005  00000+0 -51681-5 0  9993
2 43573  86.3908  87.2838 0002151  93.5540 266.5902 14.34217582402866
IRIDIUM 154             
1 43574U 18061F   26094.97465776  .00000020  00000+0  14458-6 0  9990
2 43574  86.3912  87.4218 0002309  89.3562 270.7898 14.34217713402911
IRIDIUM 163             
1 43575U 18061G   26095.23470349  .00000002  00000+0 -64286-5 0  9997
2 43575  86.3912  87.2304 0002141  90.2251 269.9190 14.34217505402921
IRIDIUM 156             
1 43576U 18061H   26095.20933140  .00000108  00000+0  31431-4 0  9999
2 43576  86.3910  87.2482 0002303  93.8686 266.2773 14.34217579402915
IRIDIUM 164             
1 43577U 18061J   26094.98099967  .00000000  00000+0 -71057-5 0  9995
2 43577  86.3913  87.3833 0002280  86.4010 273.7447 14.34217670402927
IRIDIUM 159             
1 43578U 18061K   26095.01905482  .00000027  00000+0  24100-5 0  9994
2 43578  86.3911  87.3055 0002139  86.3200 273.8240 14.34217850402893
IRIDIUM 180             
1 43922U 19002A   26095.22785623  .00000322  00000+0  10775-3 0  9998
2 43922  86.4015  24.0789 0002155  83.1657 276.9784 14.34219590378536
IRIDIUM 176             
1 43923U 19002B   26095.22963785  .00001531  00000+0  23895-3 0  9996
2 43923  86.6136  24.0318 0002664  85.5154 274.6367 14.72254411388518
IRIDIUM 168             
1 43924U 19002C   26095.29128202  .00000340  00000+0  11449-3 0  9990
2 43924  86.4018  24.1273 0002156  85.0690 275.0752 14.34216832378529
