[{"OBJECT_NAME":"IRIDIUM 152","OBJECT_ID":"2018-047D","EPOCH":"2026-04-05T02:58:30.158688","MEAN_MOTION":14.34217654,"ECCENTRICITY":0.00020171,"INCLINATION":86.3933,"RA_OF_ASC_NODE":118.8914,"ARG_OF_PERICENTER":91.2826,"MEAN_ANOMALY":268.8601,"EPHEMERIS_TYPE":0,"CLASSIFICATION_TYPE":"U","NORAD_CAT_ID":43479,"ELEMENT_SET_NO":999,"REV_AT_EPOCH":41201,"BSTAR":-3.183972e-6,"MEAN_MOTION_DOT":1.1e-7,"MEAN_MOTION_DDOT":0},{"OBJECT_NAME":"IRIDIUM 147","OBJECT_ID":"2018-047E","EPOCH":"2026-04-05T03:07:38.242272","MEAN_MOTION":14.34217995,"ECCENTRICITY":0.0002384,"INCLINATION":86.3931,"RA_OF_ASC_NODE":118.8929,"ARG_OF_PERICENTER":92.6899,"MEAN_ANOMALY":267.4569,"EPHEMERIS_TYPE":0,"CLASSIFICATION_TYPE":"U","NORAD_CAT_ID":43480,"ELEMENT_SET_NO":999,"REV_AT_EPOCH":41201,"BSTAR":1.1636809e-5,"MEAN_MOTION_DOT":5.2e-7,"MEAN_MOTION_DDOT":0},{"OBJECT_NAME":"IRIDIUM 110","OBJECT_ID":"2018-047F","EPOCH":"2026-04-05T03:16:46.158240","MEAN_MOTION":14.34217802,"ECCENTRICITY":0.00019845,"INCLINATION":86.3933,"RA_OF_ASC_NODE":118.98,"ARG_OF_PERICENTER":85.5817,"MEAN_ANOMALY":274.5606,"EPHEMERIS_TYPE":0,"CLASSIFICATION_TYPE":"U","NORAD_CAT_ID":43481,"ELEMENT_SET_NO":999,"REV_AT_EPOCH":41200,"BSTAR":1.454972e-6,"MEAN_MOTION_DOT":2.4e-7,"MEAN_MOTION_DDOT":0},{"OBJECT_NAME":"IRIDIUM 162","OBJECT_ID":"2018-047G","EPOCH":"2026-04-05T02:06:40.986432","MEAN_MOTION":14.4327709,"ECCENTRICITY":0.00022426,"INCLINATION":86.4453,"RA_OF_ASC_NODE":118.938,"ARG_OF_PERICENTER":94.9525,"MEAN_ANOMALY":265.1932,"EPHEMERIS_TYPE":0,"CLASSIFICATION_TYPE":"U","NORAD_CAT_ID":43482,"ELEMENT_SET_NO":999,"REV_AT_EPOCH":41458,"BSTAR":5.0577525e-5,"MEAN_MOTION_DOT":1.9e-6,"MEAN_MOTION_DDOT":0},{"OBJECT_NAME":"IRIDIUM 160","OBJECT_ID":"2018-061A","EPOCH":"2026-04-05T05:19:42.395808","MEAN_MOTION":14.34217818,"ECCENTRICITY":0.00022158,"INCLINATION":86.3914,"RA_OF_ASC_NODE":87.3092,"ARG_OF_PERICENTER":86.4332,"MEAN_ANOMALY":273.7117,"EPHEMERIS_TYPE":0,"CLASSIFICATION_TYPE":"U","NORAD_CAT_ID":43569,"ELEMENT_SET_NO":999,"REV_AT_EPOCH":40291,"BSTAR":4.523052e-6,"MEAN_MOTION_DOT":3.2e-7,"MEAN_MOTION_DDOT":0},{"OBJECT_NAME":"IRIDIUM 166","OBJECT_ID":"2018-061B","EPOCH":"2026-04-05T05:56:14.477856","MEAN_MOTION":14.34217614,"ECCENTRICITY":0.00023591,"INCLINATION":86.3912,"RA_OF_ASC_NODE":87.2499,"ARG_OF_PERICENTER":89.8389,"MEAN_ANOMALY":270.3078,"EPHEMERIS_TYPE":0,"CLASSIFICATION_TYPE":"U","NORAD_CAT_ID":43570,"ELEMENT_SET_NO":999,"REV_AT_EPOCH":40294,"BSTAR":-5.0048e-6,"MEAN_MOTION_DOT":6.0e-8,"MEAN_MOTION_DDOT":0},{"OBJECT_NAME":"IRIDIUM 158","OBJECT_ID":"2018-061C","EPOCH":"2026-04-05T01:49:38.404416","MEAN_MOTION":14.34217317,"ECCENTRICITY":0.00020125,"INCLINATION":86.3911,"RA_OF_ASC_NODE":87.3317,"ARG_OF_PERICENTER":92.0942,"MEAN_ANOMALY":268.0485,"EPHEMERIS_TYPE":0,"CLASSIFICATION_TYPE":"U","NORAD_CAT_ID":43571,"ELEMENT_SET_NO":999,"REV_AT_EPOCH":40288,"BSTAR":-1.3260578e-5,"MEAN_MOTION_DOT":-1.7e-7,"MEAN_MOTION_DDOT":0},{"OBJECT_NAME":"IRIDIUM 165","OBJECT_ID":"2018-061D","EPOCH":"2026-04-05T05:47:06.375264","MEAN_MOTION":14.34217298,"ECCENTRICITY":0.00022495,"INCLINATION":86.3915,"RA_OF_ASC_NODE":87.3078,"ARG_OF_PERICENTER":89.993,"MEAN_ANOMALY":270.1524,"EPHEMERIS_TYPE":0,"CLASSIFICATION_TYPE":"U","NORAD_CAT_ID":43572,"ELEMENT_SET_NO":999,"REV_AT_EPOCH":40293,"BSTAR":-1.5624705e-5,"MEAN_MOTION_DOT":-2.4e-7,"MEAN_MOTION_DDOT":0},{"OBJECT_NAME":"IRIDIUM 155","OBJECT_ID":"2018-061E","EPOCH":"2026-04-04T23:50:54.371904","MEAN_MOTION":14.34217582,"ECCENTRICITY":0.00021519,"INCLINATION":86.3908,"RA_OF_ASC_NODE":87.2838,"ARG_OF_PERICENTER":93.554,"MEAN_ANOMALY":266.5902,"EPHEMERIS_TYPE":0,"CLASSIFICATION_TYPE":"U","NORAD_CAT_ID":43573,"ELEMENT_SET_NO":999,"REV_AT_EPOCH":40286,"BSTAR":-5.168057e-6,"MEAN_MOTION_DOT":5.0e-8,"MEAN_MOTION_DDOT":0},{"OBJECT_NAME":"IRIDIUM 154","OBJECT_ID":"2018-061F","EPOCH":"2026-04-04T23:23:30.430464","MEAN_MOTION":14.34217713,"ECCENTRICITY":0.00023092,"INCLINATION":86.3912,"RA_OF_ASC_NODE":87.4218,"ARG_OF_PERICENTER":89.3562,"MEAN_ANOMALY":270.7898,"EPHEMERIS_TYPE":0,"CLASSIFICATION_TYPE":"U","NORAD_CAT_ID":43574,"ELEMENT_SET_NO":999,"REV_AT_EPOCH":40291,"BSTAR":1.44584e-7,"MEAN_MOTION_DOT":2.0e-7,"MEAN_MOTION_DDOT":0},{"OBJECT_NAME":"IRIDIUM 163","OBJECT_ID":"2018-061G","EPOCH":"2026-04-05T05:37:58.381536","MEAN_MOTION":14.34217505,"ECCENTRICITY":0.00021416,"INCLINATION":86.3912,"RA_OF_ASC_NODE":87.2304,"ARG_OF_PERICENTER":90.2251,"MEAN_ANOMALY":269.919,"EPHEMERIS_TYPE":0,"CLASSIFICATION_TYPE":"U","NORAD_CAT_ID":43575,"ELEMENT_SET_NO":999,"REV_AT_EPOCH":40292,"BSTAR":-6.428621e-6,"MEAN_MOTION_DOT":2.0e-8,"MEAN_MOTION_DDOT":0},{"OBJECT_NAME":"IRIDIUM 156","OBJECT_ID":"2018-061H","EPOCH":"2026-04-05T05:01:26.232960","MEAN_MOTION":14.34217579,"ECCENTRICITY":0.0002303,"INCLINATION":86.391,"RA_OF_ASC_NODE":87.2482,"ARG_OF_PERICENTER":93.8686,"MEAN_ANOMALY":266.2773,"EPHEMERIS_TYPE":0,"CLASSIFICATION_TYPE":"U","NORAD_CAT_ID":43576,"ELEMENT_SET_NO":999,"REV_AT_EPOCH":40291,"BSTAR":3.143091e-5,"MEAN_MOTION_DOT":1.08e-6,"MEAN_MOTION_DDOT":0},{"OBJECT_NAME":"IRIDIUM 164","OBJECT_ID":"2018-061J","EPOCH":"2026-04-04T23:32:38.371488","MEAN_MOTION":14.3421767,"ECCENTRICITY":0.00022802,"INCLINATION":86.3913,"RA_OF_ASC_NODE":87.3833,"ARG_OF_PERICENTER":86.401,"MEAN_ANOMALY":273.7447,"EPHEMERIS_TYPE":0,"CLASSIFICATION_TYPE":"U","NORAD_CAT_ID":43577,"ELEMENT_SET_NO":999,"REV_AT_EPOCH":40292,"BSTAR":-7.105715e-6,"MEAN_MOTION_DOT":0,"MEAN_MOTION_DDOT":0},{"OBJECT_NAME":"IRIDIUM 159","OBJECT_ID":"2018-061K","EPOCH":"2026-04-05T00:27:26.336448","MEAN_MOTION":14.3421785,"ECCENTRICITY":0.00021397,"INCLINATION":86.3911,"RA_OF_ASC_NODE":87.3055,"ARG_OF_PERICENTER":86.32,"MEAN_ANOMALY":273.824,"EPHEMERIS_TYPE":0,"CLASSIFICATION_TYPE":"U","NORAD_CAT_ID":43578,"ELEMENT_SET_NO":999,"REV_AT_EPOCH":40289,"BSTAR":2.409952e-6,"MEAN_MOTION_DOT":2.7e-7,"MEAN_MOTION_DDOT":0},{"OBJECT_NAME":"IRIDIUM 180","OBJECT_ID":"2019-002A","EPOCH":"2026-04-05T05:28:06.778272","MEAN_MOTION":14.3421959,"ECCENTRICITY":0.00021553,"INCLINATION":86.4015,"RA_OF_ASC_NODE":24.0789,"ARG_OF_PERICENTER":83.1657,"MEAN_ANOMALY":276.9784,"EPHEMERIS_TYPE":0,"CLASSIFICATION_TYPE":"U","NORAD_CAT_ID":43922,"ELEMENT_SET_NO":999,"REV_AT_EPOCH":37853,"BSTAR":0.0001077532,"MEAN_MOTION_DOT":3.22e-6,"MEAN_MOTION_DDOT":0},{"OBJECT_NAME":"IRIDIUM 176","OBJECT_ID":"2019-002B","EPOCH":"2026-04-05T05:30:40.710240","MEAN_MOTION":14.72254411,"ECCENTRICITY":0.00026646,"INCLINATION":86.6136,"RA_OF_ASC_NODE":24.0318,"ARG_OF_PERICENTER":85.5154,"MEAN_ANOMALY":274.6367,"EPHEMERIS_TYPE":0,"CLASSIFICATION_TYPE":"U","NORAD_CAT_ID":43923,"ELEMENT_SET_NO":999,"REV_AT_EPOCH":38851,"BSTAR":0.00023894919,"MEAN_MOTION_DOT":1.531e-5,"MEAN_MOTION_DDOT":0},{"OBJECT_NAME":"IRIDIUM 168","OBJECT_ID":"2019-002C","EPOCH":"2026-04-05T06:59:26.766528","MEAN_MOTION":14.34216832,"ECCENTRICITY":0.00021562,"INCLINATION":86.4018,"RA_OF_ASC_NODE":24.1273,"ARG_OF_PERICENTER":85.069,"MEAN_ANOMALY":275.0752,"EPHEMERIS_TYPE":0,"CLASSIFICATION_TYPE":"U","NORAD_CAT_ID":43924,"ELEMENT_SET_NO":999,"REV_AT_EPOCH":37852,"BSTAR":0.00011448749,"MEAN_MOTION_DOT":3.4e-6,"MEAN_MOTION_DDOT":0}]
